CCSDS_OMM_VERS = 2.0
CREATION_DATE  = 
ORIGINATOR     = 

OBJECT_NAME    = ATLAS CENTAUR R/B
OBJECT_ID      = 1972-065B
CENTER_NAME    = EARTH
REF_FRAME      = TEME
TIME_SYSTEM    = UTC
MEAN_ELEMENT_THEORY = SGP/SGP4

EPOCH          = 2026-01-06T06:11:22.978176
MEAN_MOTION    = 14.77487889
ECCENTRICITY   = .00342205
INCLINATION    = 35.0026
RA_OF_ASC_NODE = 311.5710
ARG_OF_PERICENTER = 206.1333
MEAN_ANOMALY   = 153.7640

EPHEMERIS_TYPE = 0
CLASSIFICATION_TYPE = U
NORAD_CAT_ID   = 6155
ELEMENT_SET_NO = 999
REV_AT_EPOCH   = 83202
BSTAR          = .2154171E-3
MEAN_MOTION_DOT = .1553E-4
MEAN_MOTION_DDOT = 0

CCSDS_OMM_VERS = 2.0
CREATION_DATE  = 
ORIGINATOR     = 

OBJECT_NAME    = SL-8 R/B
OBJECT_ID      = 1975-112B
CENTER_NAME    = EARTH
REF_FRAME      = TEME
TIME_SYSTEM    = UTC
MEAN_ELEMENT_THEORY = SGP/SGP4

EPOCH          = 2026-01-06T07:35:25.465344
MEAN_MOTION    = 14.38165098
ECCENTRICITY   = .00166309
INCLINATION    = 74.0611
RA_OF_ASC_NODE = 133.6532
ARG_OF_PERICENTER = 242.6053
MEAN_ANOMALY   = 117.3410

EPHEMERIS_TYPE = 0
CLASSIFICATION_TYPE = U
NORAD_CAT_ID   = 8459
ELEMENT_SET_NO = 999
REV_AT_EPOCH   = 62290
BSTAR          = .13237437E-3
MEAN_MOTION_DOT = .376E-5
MEAN_MOTION_DDOT = 0

CCSDS_OMM_VERS = 2.0
CREATION_DATE  = 
ORIGINATOR     = 

OBJECT_NAME    = SL-3 R/B
OBJECT_ID      = 1977-057B
CENTER_NAME    = EARTH
REF_FRAME      = TEME
TIME_SYSTEM    = UTC
MEAN_ELEMENT_THEORY = SGP/SGP4

EPOCH          = 2026-01-06T06:22:21.329760
MEAN_MOTION    = 15.43649815
ECCENTRICITY   = .00080555
INCLINATION    = 97.5696
RA_OF_ASC_NODE = 175.5623
ARG_OF_PERICENTER = 141.1149
MEAN_ANOMALY   = 219.0680

EPHEMERIS_TYPE = 0
CLASSIFICATION_TYPE = U
NORAD_CAT_ID   = 10114
ELEMENT_SET_NO = 999
REV_AT_EPOCH   = 65869
BSTAR          = .31903231E-3
MEAN_MOTION_DOT = .14303E-3
MEAN_MOTION_DDOT = 0

CCSDS_OMM_VERS = 2.0
CREATION_DATE  = 
ORIGINATOR     = 

OBJECT_NAME    = SEASAT 1
OBJECT_ID      = 1978-064A
CENTER_NAME    = EARTH
REF_FRAME      = TEME
TIME_SYSTEM    = UTC
MEAN_ELEMENT_THEORY = SGP/SGP4

EPOCH          = 2026-01-06T05:45:22.963104
MEAN_MOTION    = 14.46094220
ECCENTRICITY   = .0001189
INCLINATION    = 108.0146
RA_OF_ASC_NODE = 354.4396
ARG_OF_PERICENTER = 266.7384
MEAN_ANOMALY   = 93.3625

EPHEMERIS_TYPE = 0
CLASSIFICATION_TYPE = U
NORAD_CAT_ID   = 10967
ELEMENT_SET_NO = 999
REV_AT_EPOCH   = 49748
BSTAR          = .1823274E-3
MEAN_MOTION_DOT = .514E-5
MEAN_MOTION_DDOT = 0

CCSDS_OMM_VERS = 2.0
CREATION_DATE  = 
ORIGINATOR     = 

OBJECT_NAME    = SL-14 R/B
OBJECT_ID      = 1979-011B
CENTER_NAME    = EARTH
REF_FRAME      = TEME
TIME_SYSTEM    = UTC
MEAN_ELEMENT_THEORY = SGP/SGP4

EPOCH          = 2026-01-06T03:16:24.108960
MEAN_MOTION    = 14.91810044
ECCENTRICITY   = .00146279
INCLINATION    = 82.5250
RA_OF_ASC_NODE = 155.9062
ARG_OF_PERICENTER = 266.3610
MEAN_ANOMALY   = 93.5937

EPHEMERIS_TYPE = 0
CLASSIFICATION_TYPE = U
NORAD_CAT_ID   = 11267
ELEMENT_SET_NO = 999
REV_AT_EPOCH   = 51945
BSTAR          = .91996956E-4
MEAN_MOTION_DOT = .954E-5
MEAN_MOTION_DDOT = 0

CCSDS_OMM_VERS = 2.0
CREATION_DATE  = 
ORIGINATOR     = 

OBJECT_NAME    = SL-8 R/B
OBJECT_ID      = 1979-089B
CENTER_NAME    = EARTH
REF_FRAME      = TEME
TIME_SYSTEM    = UTC
MEAN_ELEMENT_THEORY = SGP/SGP4

EPOCH          = 2026-01-06T06:02:33.082656
MEAN_MOTION    = 14.42300458
ECCENTRICITY   = .0015124
INCLINATION    = 74.0673
RA_OF_ASC_NODE = 206.6118
ARG_OF_PERICENTER = 31.3193
MEAN_ANOMALY   = 328.8861

EPHEMERIS_TYPE = 0
CLASSIFICATION_TYPE = U
NORAD_CAT_ID   = 11574
ELEMENT_SET_NO = 999
REV_AT_EPOCH   = 42710
BSTAR          = .95983006E-4
MEAN_MOTION_DOT = .291E-5
MEAN_MOTION_DDOT = 0

CCSDS_OMM_VERS = 2.0
CREATION_DATE  = 
ORIGINATOR     = 

OBJECT_NAME    = SL-14 R/B
OBJECT_ID      = 1980-005B
CENTER_NAME    = EARTH
REF_FRAME      = TEME
TIME_SYSTEM    = UTC
MEAN_ELEMENT_THEORY = SGP/SGP4

EPOCH          = 2026-01-06T05:49:22.088928
MEAN_MOTION    = 14.90828995
ECCENTRICITY   = .00162174
INCLINATION    = 82.5140
RA_OF_ASC_NODE = 6.4570
ARG_OF_PERICENTER = 17.5164
MEAN_ANOMALY   = 342.6611

EPHEMERIS_TYPE = 0
CLASSIFICATION_TYPE = U
NORAD_CAT_ID   = 11672
ELEMENT_SET_NO = 999
REV_AT_EPOCH   = 46718
BSTAR          = .86520241E-4
MEAN_MOTION_DOT = .878E-5
MEAN_MOTION_DDOT = 0

CCSDS_OMM_VERS = 2.0
CREATION_DATE  = 
ORIGINATOR     = 

OBJECT_NAME    = SL-8 R/B
OBJECT_ID      = 1981-003B
CENTER_NAME    = EARTH
REF_FRAME      = TEME
TIME_SYSTEM    = UTC
MEAN_ELEMENT_THEORY = SGP/SGP4

EPOCH          = 2026-01-06T03:57:39.204576
MEAN_MOTION    = 15.08058380
ECCENTRICITY   = .02745316
INCLINATION    = 82.9380
RA_OF_ASC_NODE = 347.7254
ARG_OF_PERICENTER = 36.5114
MEAN_ANOMALY   = 325.4486

EPHEMERIS_TYPE = 0
CLASSIFICATION_TYPE = U
NORAD_CAT_ID   = 12139
ELEMENT_SET_NO = 999
REV_AT_EPOCH   = 30524
BSTAR          = .71362637E-3
MEAN_MOTION_DOT = .27045E-3
MEAN_MOTION_DDOT = 0

CCSDS_OMM_VERS = 2.0
CREATION_DATE  = 
ORIGINATOR     = 

OBJECT_NAME    = SL-3 R/B
OBJECT_ID      = 1981-046B
CENTER_NAME    = EARTH
REF_FRAME      = TEME
TIME_SYSTEM    = UTC
MEAN_ELEMENT_THEORY = SGP/SGP4

EPOCH          = 2026-01-06T06:10:12.803232
MEAN_MOTION    = 15.40230387
ECCENTRICITY   = .00180673
INCLINATION    = 81.2322
RA_OF_ASC_NODE = 4.5926
ARG_OF_PERICENTER = 233.1376
MEAN_ANOMALY   = 126.8210

EPHEMERIS_TYPE = 0
CLASSIFICATION_TYPE = U
NORAD_CAT_ID   = 12465
ELEMENT_SET_NO = 999
REV_AT_EPOCH   = 42881
BSTAR          = .31952614E-3
MEAN_MOTION_DOT = .12951E-3
MEAN_MOTION_DDOT = 0

CCSDS_OMM_VERS = 2.0
CREATION_DATE  = 
ORIGINATOR     = 

OBJECT_NAME    = SL-3 R/B
OBJECT_ID      = 1981-103B
CENTER_NAME    = EARTH
REF_FRAME      = TEME
TIME_SYSTEM    = UTC
MEAN_ELEMENT_THEORY = SGP/SGP4

EPOCH          = 2026-01-06T06:34:46.203168
MEAN_MOTION    = 15.20586651
ECCENTRICITY   = .00138613
INCLINATION    = 81.1600
RA_OF_ASC_NODE = 286.6161
ARG_OF_PERICENTER = 130.0622
MEAN_ANOMALY   = 230.1827

EPHEMERIS_TYPE = 0
CLASSIFICATION_TYPE = U
NORAD_CAT_ID   = 12904
ELEMENT_SET_NO = 999
REV_AT_EPOCH   = 96374
BSTAR          = .2894424E-3
MEAN_MOTION_DOT = .6381E-4
MEAN_MOTION_DDOT = 0

CCSDS_OMM_VERS = 2.0
CREATION_DATE  = 
ORIGINATOR     = 

OBJECT_NAME    = SL-3 R/B
OBJECT_ID      = 1982-013B
CENTER_NAME    = EARTH
REF_FRAME      = TEME
TIME_SYSTEM    = UTC
MEAN_ELEMENT_THEORY = SGP/SGP4

EPOCH          = 2026-01-06T05:51:54.495072
MEAN_MOTION    = 15.21338977
ECCENTRICITY   = .00235289
INCLINATION    = 81.1726
RA_OF_ASC_NODE = 233.9228
ARG_OF_PERICENTER = 32.3955
MEAN_ANOMALY   = 327.8716

EPHEMERIS_TYPE = 0
CLASSIFICATION_TYPE = U
NORAD_CAT_ID   = 13068
ELEMENT_SET_NO = 999
REV_AT_EPOCH   = 39485
BSTAR          = .22937012E-3
MEAN_MOTION_DOT = .5199E-4
MEAN_MOTION_DDOT = 0

CCSDS_OMM_VERS = 2.0
CREATION_DATE  = 
ORIGINATOR     = 

OBJECT_NAME    = SL-3 R/B
OBJECT_ID      = 1982-039B
CENTER_NAME    = EARTH
REF_FRAME      = TEME
TIME_SYSTEM    = UTC
MEAN_ELEMENT_THEORY = SGP/SGP4

EPOCH          = 2026-01-06T05:31:41.833920
MEAN_MOTION    = 15.09702643
ECCENTRICITY   = .00296575
INCLINATION    = 81.1697
RA_OF_ASC_NODE = 287.9178
ARG_OF_PERICENTER = 169.3157
MEAN_ANOMALY   = 190.8705

EPHEMERIS_TYPE = 0
CLASSIFICATION_TYPE = U
NORAD_CAT_ID   = 13154
ELEMENT_SET_NO = 999
REV_AT_EPOCH   = 37221
BSTAR          = .20982605E-3
MEAN_MOTION_DOT = .3438E-4
MEAN_MOTION_DDOT = 0

