ATLAS CENTAUR R/B       
1 06155U 72065B   26006.25790484  .00001553  00000+0  21542-3 0  9990
2 06155  35.0026 311.5710 0034220 206.1333 153.7640 14.77487889832026
SL-8 R/B                
1 08459U 75112B   26006.31626696  .00000376  00000+0  13237-3 0  9999
2 08459  74.0611 133.6532 0016630 242.6053 117.3410 14.38165098622909
SL-3 R/B                
1 10114U 77057B   26006.26552465  .00014303  00000+0  31903-3 0  9991
2 10114  97.5696 175.5623 0008055 141.1149 219.0680 15.43649815658695
SEASAT 1                
1 10967U 78064A   26006.23984911  .00000514  00000+0  18233-3 0  9998
2 10967 108.0146 354.4396 0001189 266.7384  93.3625 14.46094220497486
SL-14 R/B               
1 11267U 79011B   26006.13639015  .00000954  00000+0  91997-4 0  9993
2 11267  82.5250 155.9062 0014627 266.3610  93.5937 14.91810044519455
SL-8 R/B                
1 11574U 79089B   26006.25177179  .00000291  00000+0  95983-4 0  9993
2 11574  74.0673 206.6118 0015124  31.3193 328.8861 14.42300458427105
SL-14 R/B               
1 11672U 80005B   26006.24261677  .00000878  00000+0  86520-4 0  9996
2 11672  82.5140   6.4570 0016217  17.5164 342.6611 14.90828995467186
SL-8 R/B                
1 12139U 81003B   26006.16503709  .00027045  00000+0  71363-3 0  9993
2 12139  82.9380 347.7254 0274531  36.5114 325.4486 15.08058380305246
SL-3 R/B                
1 12465U 81046B   26006.25709263  .00012951  00000+0  31953-3 0  9996
2 12465  81.2322   4.5926 0018067 233.1376 126.8210 15.40230387428817
SL-3 R/B                
1 12904U 81103B   26006.27414587  .00006381  00000+0  28944-3 0  9998
2 12904  81.1600 286.6161 0013861 130.0622 230.1827 15.20586651963748
SL-3 R/B                
1 13068U 82013B   26006.24438073  .00005199  00000+0  22937-3 0  9996
2 13068  81.1726 233.9228 0023528  32.3955 327.8716 15.21338977394850
SL-3 R/B                
1 13154U 82039B   26006.23034530  .00003438  00000+0  20983-3 0  9992
2 13154  81.1697 287.9178 0029657 169.3157 190.8705 15.09702643372213
